GPS BIIR-2  (PRN 13)    
1 24876U 97035A   21273.10338127 -.00000007  00000-0  00000-0 0  9999
2 24876  55.4787 165.8312 0053129  54.0285 306.5269  2.00562525177435
GPS BIIR-4  (PRN 20)    
1 26360U 00025A   21273.44858323  .00000026  00000-0  00000-0 0  9994
2 26360  53.8532  89.6271 0055039 173.7508 162.9401  2.00564740156756
GPS BIIR-8  (PRN 16)    
1 27663U 03005A   21272.75370176  .00000030  00000-0  00000-0 0  9995
2 27663  55.6985 283.4054 0121010  38.0543 135.0131  2.00553180136781
GPS BIIR-9  (PRN 21)    
1 27704U 03010A   21272.73852659 -.00000068  00000-0  00000-0 0  9998
2 27704  54.9128  33.8811 0242951 297.8508  81.0459  2.00568187135583
GPS BIIR-10 (PRN 22)    
1 28129U 03058A   21272.79513926  .00000022  00000-0  00000-0 0  9998
2 28129  53.6633  92.2958 0069003 307.8287  51.5994  2.00557659130262
GPS BIIR-11 (PRN 19)    
1 28190U 04009A   21273.29805579 -.00000074  00000-0  00000-0 0  9995
2 28190  56.1393 344.2969 0088710 112.3196 254.5345  2.00566322128435
GPS BIIR-13 (PRN 02)    
1 28474U 04045A   21273.40777564 -.00000066  00000-0  00000-0 0  9996
2 28474  55.2454  33.8964 0205557 274.4550  82.9037  2.00553096123911
GPS BIIRM-1 (PRN 17)    
1 28874U 05038A   21273.25780961 -.00000070  00000-0  00000-0 0  9996
2 28874  56.2172 341.7191 0138543 271.0058  90.3707  2.00564349117320
GPS BIIRM-2 (PRN 31)    
1 29486U 06042A   21272.22417837  .00000013  00000-0  00000-0 0  9993
2 29486  54.7540 219.6695 0101569  16.0709 233.2892  2.00569906109858
GPS BIIRM-3 (PRN 12)    
1 29601U 06052A   21273.32313122  .00000033  00000-0  00000-0 0  9999
2 29601  55.6972 282.3118 0080239  69.9976 290.9004  2.00563811108893
GPS BIIRM-4 (PRN 15)    
1 32260U 07047A   21273.12733138  .00000002  00000-0  00000-0 0  9996
2 32260  53.2500 151.3330 0135257  58.6985 302.6992  2.00562029102291
GPS BIIRM-5 (PRN 29)    
1 32384U 07062A   21273.45024508 -.00000070  00000-0  00000-0 0  9996
2 32384  56.3278 342.4402 0017658 140.4522 222.4233  2.00575872101003
GPS BIIRM-6 (PRN 07)    
1 32711U 08012A   21273.04501239  .00000007  00000-0  00000-0 0  9991
2 32711  54.5084 218.6315 0154641 228.5079 130.1472  2.00556156 99233
GPS BIIRM-8 (PRN 05)    
1 35752U 09043A   21273.52887368  .00000036  00000-0  00000-0 0  9999
2 35752  54.8794  96.0104 0058907  56.0456 306.7371  2.00572941 88852
GPS BIIF-1  (PRN 25)    
1 36585U 10022A   21272.60884590  .00000033  00000-0  00000-0 0  9992
2 36585  54.9753 278.0407 0096324  54.4615 126.6754  2.00551724 83063
GPS BIIF-2  (PRN 01)    
1 37753U 11036A   21272.49849873 -.00000058  00000-0  00000-0 0  9996
2 37753  56.4770  38.8819 0108980  50.2255 132.3449  2.00563924 74747
GPS BIIF-3  (PRN 24)    
1 38833U 12053A   21273.22552712  .00000000  00000-0  00000-0 0  9997
2 38833  53.5594 214.0182 0115092  42.8063 318.0767  2.00558736 64926
GPS BIIF-4  (PRN 27)    
1 39166U 13023A   21272.59049276 -.00000070  00000-0  00000-0 0  9998
2 39166  55.8560 338.2192 0093814  35.1342 325.5395  2.00567488 61354
GPS BIIF-5  (PRN 30)    
1 39533U 14008A   21273.08834413  .00000006  00000-0  00000-0 0  9998
2 39533  53.6599 219.5038 0054493 205.5809 154.1396  2.00566889 55164
GPS BIIF-6  (PRN 06)    
1 39741U 14026A   21272.86753670 -.00000058  00000-0  00000-0 0  9997
2 39741  56.4435  38.3945 0024122 298.4279  61.3371  2.00574531 54015
GPS BIIF-7  (PRN 09)    
1 40105U 14045A   21270.96384677 -.00000009  00000-0  00000-0 0  9996
2 40105  54.6393 157.2860 0019806 105.4472 254.8463  2.00560015 51511
GPS BIIF-8  (PRN 03)    
1 40294U 14068A   21272.32823272  .00000027  00000-0  00000-0 0  9990
2 40294  55.6246  98.2661 0036936  54.6092 305.7941  2.00553323 50674
GPS BIIF-9  (PRN 26)    
1 40534U 15013A   21272.96384343  .00000032  00000-0  00000-0 0  9995
2 40534  53.8798 275.4820 0061162  14.7843 345.4178  2.00568362 47307
GPS BIIF-10 (PRN 08)    
1 40730U 15033A   21273.12401866 -.00000065  00000-0  00000-0 0  9991
2 40730  55.3608 337.1502 0065242   0.9804 359.0927  2.00565624 45479
GPS BIIF-11 (PRN 10)    
1 41019U 15062A   21272.67594572  .00000031  00000-0  00000-0 0  9992
2 41019  55.6165  98.0899 0071086 213.3831 146.2252  2.00563487 43308
GPS BIIF-12 (PRN 32)    
1 41328U 16007A   21272.76790288 -.00000004  00000-0  00000-0 0  9998
2 41328  54.8641 157.8202 0052608 225.4300 134.2123  2.00557683 41311
GPS BIII-1  (PRN 04)    
1 43873U 18109A   21273.31358927 -.00000002  00000-0  00000-0 0  9990
2 43873  55.0453 160.1628 0014430 192.5989  93.9832  2.00561413 20556
GPS BIII-2  (PRN 18)    
1 44506U 19056A   21274.13793083 -.00000056  00000-0  00000+0 0  9991
2 44506  55.5464  39.3827 0019574 177.2017 245.7218  2.00567219 15561
GPS BIII-3  (PRN 23)    
1 45854U 20041A   21273.42136003  .00000037  00000-0  00000-0 0  9997
2 45854  55.3315  96.6774 0016450 161.8986  45.9187  2.00563639  9528
GPS BIII-4  (PRN 14)    
1 46826U 20078A   21270.76725694  .00000018  00000-0  00000+0 0  9999
2 46826  54.7505 280.7473 0011318 190.5551 230.0891  2.00566901  6935
